[
  {
    "COMMENT": "GENERATED VIA SPACETRACK.ORG API",
    "ORIGINATOR": "JSPOC",
    "NORAD_CAT_ID": "40076",
    "OBJECT_NAME": "TDS 1",
    "OBJECT_TYPE": "PAYLOAD",
    "CLASSIFICATION_TYPE": "U",
    "INTLDES": "14037H",
    "EPOCH": "2016-03-19 05:16:13",
    "EPOCH_MICROSECONDS": "987776",
    "MEAN_MOTION": "14.81153513",
    "ECCENTRICITY": "0.0007246",
    "INCLINATION": "98.3245",
    "RA_OF_ASC_NODE": "166.7644",
    "ARG_OF_PERICENTER": "93.3738",
    "MEAN_ANOMALY": "266.8305",
    "EPHEMERIS_TYPE": "0",
    "ELEMENT_SET_NO": "999",
    "REV_AT_EPOCH": "9167",
    "BSTAR": "5.0657e-05",
    "MEAN_MOTION_DOT": "3.37e-06",
    "MEAN_MOTION_DDOT": "0",
    "FILE": "2009139",
    "TLE_LINE0": "0 TDS 1",
    "TLE_LINE1": "1 40076U 14037H   16079.21960634  .00000337  00000-0  50657-4 0  9996",
    "TLE_LINE2": "2 40076  98.3245 166.7644 0007246  93.3738 266.8305 14.81153513 91671",
    "OBJECT_ID": "2014-037H",
    "OBJECT_NUMBER": "40076",
    "SEMIMAJOR_AXIS": "7003.822",
    "PERIOD": "97.221",
    "APOGEE": "630.762",
    "PERIGEE": "620.612"
  },
  {
    "COMMENT": "GENERATED VIA SPACETRACK.ORG API",
    "ORIGINATOR": "JSPOC",
    "NORAD_CAT_ID": "40076",
    "OBJECT_NAME": "TDS 1",
    "OBJECT_TYPE": "PAYLOAD",
    "CLASSIFICATION_TYPE": "U",
    "INTLDES": "14037H",
    "EPOCH": "2016-03-19 13:22:38",
    "EPOCH_MICROSECONDS": "13888",
    "MEAN_MOTION": "14.8115379",
    "ECCENTRICITY": "0.0007247",
    "INCLINATION": "98.3244",
    "RA_OF_ASC_NODE": "167.1152",
    "ARG_OF_PERICENTER": "92.5706",
    "MEAN_ANOMALY": "267.6337",
    "EPHEMERIS_TYPE": "0",
    "ELEMENT_SET_NO": "999",
    "REV_AT_EPOCH": "9172",
    "BSTAR": "5.018e-05",
    "MEAN_MOTION_DOT": "3.33e-06",
    "MEAN_MOTION_DDOT": "0",
    "FILE": "2009280",
    "TLE_LINE0": "0 TDS 1",
    "TLE_LINE1": "1 40076U 14037H   16079.55738442  .00000333  00000-0  50180-4 0  9990",
    "TLE_LINE2": "2 40076  98.3244 167.1152 0007247  92.5706 267.6337 14.81153790 91723",
    "OBJECT_ID": "2014-037H",
    "OBJECT_NUMBER": "40076",
    "SEMIMAJOR_AXIS": "7003.821",
    "PERIOD": "97.221",
    "APOGEE": "630.762",
    "PERIGEE": "620.610"
  },
  {
    "COMMENT": "GENERATED VIA SPACETRACK.ORG API",
    "ORIGINATOR": "JSPOC",
    "NORAD_CAT_ID": "40076",
    "OBJECT_NAME": "TDS 1",
    "OBJECT_TYPE": "PAYLOAD",
    "CLASSIFICATION_TYPE": "U",
    "INTLDES": "14037H",
    "EPOCH": "2016-03-19 19:51:45",
    "EPOCH_MICROSECONDS": "218880",
    "MEAN_MOTION": "14.81154056",
    "ECCENTRICITY": "0.0007285",
    "INCLINATION": "98.3244",
    "RA_OF_ASC_NODE": "167.3957",
    "ARG_OF_PERICENTER": "92.3396",
    "MEAN_ANOMALY": "267.8644",
    "EPHEMERIS_TYPE": "0",
    "ELEMENT_SET_NO": "999",
    "REV_AT_EPOCH": "9176",
    "BSTAR": "5.0896e-05",
    "MEAN_MOTION_DOT": "3.39e-06",
    "MEAN_MOTION_DDOT": "0",
    "FILE": "2009438",
    "TLE_LINE0": "0 TDS 1",
    "TLE_LINE1": "1 40076U 14037H   16079.82760670  .00000339  00000-0  50896-4 0  9998",
    "TLE_LINE2": "2 40076  98.3244 167.3957 0007285  92.3396 267.8644 14.81154056 91766",
    "OBJECT_ID": "2014-037H",
    "OBJECT_NUMBER": "40076",
    "SEMIMAJOR_AXIS": "7003.820",
    "PERIOD": "97.221",
    "APOGEE": "630.787",
    "PERIGEE": "620.583"
  },
  {
    "COMMENT": "GENERATED VIA SPACETRACK.ORG API",
    "ORIGINATOR": "JSPOC",
    "NORAD_CAT_ID": "40076",
    "OBJECT_NAME": "TDS 1",
    "OBJECT_TYPE": "PAYLOAD",
    "CLASSIFICATION_TYPE": "U",
    "INTLDES": "14037H",
    "EPOCH": "2016-03-20 05:35:26",
    "EPOCH_MICROSECONDS": "79936",
    "MEAN_MOTION": "14.81154226",
    "ECCENTRICITY": "0.0007292",
    "INCLINATION": "98.3244",
    "RA_OF_ASC_NODE": "167.8167",
    "ARG_OF_PERICENTER": "91.0009",
    "MEAN_ANOMALY": "269.2038",
    "EPHEMERIS_TYPE": "0",
    "ELEMENT_SET_NO": "999",
    "REV_AT_EPOCH": "9182",
    "BSTAR": "4.8627e-05",
    "MEAN_MOTION_DOT": "3.21e-06",
    "MEAN_MOTION_DDOT": "0",
    "FILE": "2009556",
    "TLE_LINE0": "0 TDS 1",
    "TLE_LINE1": "1 40076U 14037H   16080.23294074  .00000321  00000-0  48627-4 0  9995",
    "TLE_LINE2": "2 40076  98.3244 167.8167 0007292  91.0009 269.2038 14.81154226 91828",
    "OBJECT_ID": "2014-037H",
    "OBJECT_NUMBER": "40076",
    "SEMIMAJOR_AXIS": "7003.820",
    "PERIOD": "97.221",
    "APOGEE": "630.792",
    "PERIGEE": "620.577"
  },
  {
    "COMMENT": "GENERATED VIA SPACETRACK.ORG API",
    "ORIGINATOR": "JSPOC",
    "NORAD_CAT_ID": "40076",
    "OBJECT_NAME": "TDS 1",
    "OBJECT_TYPE": "PAYLOAD",
    "CLASSIFICATION_TYPE": "U",
    "INTLDES": "14037H",
    "EPOCH": "2016-03-20 12:04:33",
    "EPOCH_MICROSECONDS": "297024",
    "MEAN_MOTION": "14.81154407",
    "ECCENTRICITY": "0.000728",
    "INCLINATION": "98.3243",
    "RA_OF_ASC_NODE": "168.0973",
    "ARG_OF_PERICENTER": "90.1836",
    "MEAN_ANOMALY": "270.0209",
    "EPHEMERIS_TYPE": "0",
    "ELEMENT_SET_NO": "999",
    "REV_AT_EPOCH": "9186",
    "BSTAR": "4.798e-05",
    "MEAN_MOTION_DOT": "3.16e-06",
    "MEAN_MOTION_DDOT": "0",
    "FILE": "2009697",
    "TLE_LINE0": "0 TDS 1",
    "TLE_LINE1": "1 40076U 14037H   16080.50316316  .00000316  00000-0  47980-4 0  9994",
    "TLE_LINE2": "2 40076  98.3243 168.0973 0007280  90.1836 270.0209 14.81154407 91865",
    "OBJECT_ID": "2014-037H",
    "OBJECT_NUMBER": "40076",
    "SEMIMAJOR_AXIS": "7003.819",
    "PERIOD": "97.221",
    "APOGEE": "630.783",
    "PERIGEE": "620.585"
  },
  {
    "COMMENT": "GENERATED VIA SPACETRACK.ORG API",
    "ORIGINATOR": "JSPOC",
    "NORAD_CAT_ID": "40076",
    "OBJECT_NAME": "TDS 1",
    "OBJECT_TYPE": "PAYLOAD",
    "CLASSIFICATION_TYPE": "U",
    "INTLDES": "14037H",
    "EPOCH": "2016-03-20 20:10:57",
    "EPOCH_MICROSECONDS": "315360",
    "MEAN_MOTION": "14.81154662",
    "ECCENTRICITY": "0.0007276",
    "INCLINATION": "98.3242",
    "RA_OF_ASC_NODE": "168.4478",
    "ARG_OF_PERICENTER": "89.1711",
    "MEAN_ANOMALY": "271.0327",
    "EPHEMERIS_TYPE": "0",
    "ELEMENT_SET_NO": "999",
    "REV_AT_EPOCH": "9191",
    "BSTAR": "4.8486e-05",
    "MEAN_MOTION_DOT": "3.2e-06",
    "MEAN_MOTION_DDOT": "0",
    "FILE": "2009831",
    "TLE_LINE0": "0 TDS 1",
    "TLE_LINE1": "1 40076U 14037H   16080.84094115  .00000320  00000-0  48486-4 0  9998",
    "TLE_LINE2": "2 40076  98.3242 168.4478 0007276  89.1711 271.0327 14.81154662 91914",
    "OBJECT_ID": "2014-037H",
    "OBJECT_NUMBER": "40076",
    "SEMIMAJOR_AXIS": "7003.818",
    "PERIOD": "97.221",
    "APOGEE": "630.779",
    "PERIGEE": "620.587"
  },
  {
    "COMMENT": "GENERATED VIA SPACETRACK.ORG API",
    "ORIGINATOR": "JSPOC",
    "NORAD_CAT_ID": "40076",
    "OBJECT_NAME": "TDS 1",
    "OBJECT_TYPE": "PAYLOAD",
    "CLASSIFICATION_TYPE": "U",
    "INTLDES": "14037H",
    "EPOCH": "2016-03-21 04:17:21",
    "EPOCH_MICROSECONDS": "382080",
    "MEAN_MOTION": "14.81154656",
    "ECCENTRICITY": "0.0007286",
    "INCLINATION": "98.3242",
    "RA_OF_ASC_NODE": "168.7987",
    "ARG_OF_PERICENTER": "88.6112",
    "MEAN_ANOMALY": "271.5941",
    "EPHEMERIS_TYPE": "0",
    "ELEMENT_SET_NO": "999",
    "REV_AT_EPOCH": "9196",
    "BSTAR": "4.5486e-05",
    "MEAN_MOTION_DOT": "2.97e-06",
    "MEAN_MOTION_DDOT": "0",
    "FILE": "2009972",
    "TLE_LINE0": "0 TDS 1",
    "TLE_LINE1": "1 40076U 14037H   16081.17871970  .00000297  00000-0  45486-4 0  9997",
    "TLE_LINE2": "2 40076  98.3242 168.7987 0007286  88.6112 271.5941 14.81154656 91967",
    "OBJECT_ID": "2014-037H",
    "OBJECT_NUMBER": "40076",
    "SEMIMAJOR_AXIS": "7003.818",
    "PERIOD": "97.221",
    "APOGEE": "630.786",
    "PERIGEE": "620.580"
  },
  {
    "COMMENT": "GENERATED VIA SPACETRACK.ORG API",
    "ORIGINATOR": "JSPOC",
    "NORAD_CAT_ID": "40076",
    "OBJECT_NAME": "TDS 1",
    "OBJECT_TYPE": "PAYLOAD",
    "CLASSIFICATION_TYPE": "U",
    "INTLDES": "14037H",
    "EPOCH": "2016-03-21 12:23:45",
    "EPOCH_MICROSECONDS": "388320",
    "MEAN_MOTION": "14.8115485",
    "ECCENTRICITY": "0.0007281",
    "INCLINATION": "98.3241",
    "RA_OF_ASC_NODE": "169.1493",
    "ARG_OF_PERICENTER": "87.6205",
    "MEAN_ANOMALY": "272.5837",
    "EPHEMERIS_TYPE": "0",
    "ELEMENT_SET_NO": "999",
    "REV_AT_EPOCH": "9201",
    "BSTAR": "4.488e-05",
    "MEAN_MOTION_DOT": "2.92e-06",
    "MEAN_MOTION_DDOT": "0",
    "FILE": "2010132",
    "TLE_LINE0": "0 TDS 1",
    "TLE_LINE1": "1 40076U 14037H   16081.51649755  .00000292  00000-0  44880-4 0  9991",
    "TLE_LINE2": "2 40076  98.3241 169.1493 0007281  87.6205 272.5837 14.81154850 92018",
    "OBJECT_ID": "2014-037H",
    "OBJECT_NUMBER": "40076",
    "SEMIMAJOR_AXIS": "7003.818",
    "PERIOD": "97.221",
    "APOGEE": "630.782",
    "PERIGEE": "620.583"
  },
  {
    "COMMENT": "GENERATED VIA SPACETRACK.ORG API",
    "ORIGINATOR": "JSPOC",
    "NORAD_CAT_ID": "40076",
    "OBJECT_NAME": "TDS 1",
    "OBJECT_TYPE": "PAYLOAD",
    "CLASSIFICATION_TYPE": "U",
    "INTLDES": "14037H",
    "EPOCH": "2016-03-21 20:30:09",
    "EPOCH_MICROSECONDS": "398016",
    "MEAN_MOTION": "14.81155104",
    "ECCENTRICITY": "0.0007298",
    "INCLINATION": "98.3241",
    "RA_OF_ASC_NODE": "169.4999",
    "ARG_OF_PERICENTER": "86.4823",
    "MEAN_ANOMALY": "273.7208",
    "EPHEMERIS_TYPE": "0",
    "ELEMENT_SET_NO": "999",
    "REV_AT_EPOCH": "9206",
    "BSTAR": "4.6003e-05",
    "MEAN_MOTION_DOT": "3.01e-06",
    "MEAN_MOTION_DDOT": "0",
    "FILE": "2010397",
    "TLE_LINE0": "0 TDS 1",
    "TLE_LINE1": "1 40076U 14037H   16081.85427544 +.00000301 +00000-0 +46003-4 0  9998",
    "TLE_LINE2": "2 40076 098.3241 169.4999 0007298 086.4823 273.7208 14.81155104092066",
    "OBJECT_ID": "2014-037H",
    "OBJECT_NUMBER": "40076",
    "SEMIMAJOR_AXIS": "7003.817",
    "PERIOD": "97.221",
    "APOGEE": "630.793",
    "PERIGEE": "620.571"
  }
]
